{"type": "FeatureCollection", "features": [ {"type": "Feature", "properties": {"norad_id": 66363, "name": "STARLINK-35806", "group": "last-30-days", "lat": -21.421820457192542, "lon": -50.19889524991533, "alt_km": 366.95344287429725, "timestamp": "2025-12-02T06:27:51.800030+00:00", "meta": {"OBJECT_NAME": "STARLINK-35806", "OBJECT_ID": "2025-254R", "EPOCH": "2025-12-01T20:00:01.999008", "MEAN_MOTION": 15.70314025, "ECCENTRICITY": 9.79e-05, "INCLINATION": 53.1589, "RA_OF_ASC_NODE": 329.0569, "ARG_OF_PERICENTER": 96.3701, "MEAN_ANOMALY": 291.8994, "EPHEMERIS_TYPE": 0, "CLASSIFICATION_TYPE": "U", "NORAD_CAT_ID": 66363, "ELEMENT_SET_NO": 999, "REV_AT_EPOCH": 514, "BSTAR": -0.017821, "MEAN_MOTION_DOT": -0.01958419, "MEAN_MOTION_DDOT": 0}, "tle": {"line1": "1 66363U 25254R   25335.83335647 -.01958419  00000+0 -17821-1 0  9997", "line2": "2 66363  53.1589 329.0569 0000979  96.3701 291.8994 15.70314025  5142"}}, "geometry": {"type": "Point", "coordinates": [-50.19889524991533, -21.421820457192542]}}, {"type": "Feature", "properties": {"norad_id": 66364, "name": "STARLINK-35797", "group": "last-30-days", "lat": -18.471415841202976, "lon": -47.60423909197124, "alt_km": 366.5749506236298, "timestamp": "2025-12-02T06:27:51.800040+00:00", "meta": {"OBJECT_NAME": "STARLINK-35797", "OBJECT_ID": "2025-254S", "EPOCH": "2025-12-01T20:00:01.999008", "MEAN_MOTION": 15.70319053, "ECCENTRICITY": 8.03e-05, "INCLINATION": 53.1591, "RA_OF_ASC_NODE": 329.0486, "ARG_OF_PERICENTER": 93.9928, "MEAN_ANOMALY": 298.1091, "EPHEMERIS_TYPE": 0, "CLASSIFICATION_TYPE": "U", "NORAD_CAT_ID": 66364, "ELEMENT_SET_NO": 999, "REV_AT_EPOCH": 517, "BSTAR": -0.017896, "MEAN_MOTION_DOT": -0.01965864, "MEAN_MOTION_DDOT": 0}, "tle": {"line1": "1 66364U 25254S   25335.83335647 -.01965864  00000+0 -17896-1 0  9992", "line2": "2 66364  53.1591 329.0486 0000803  93.9928 298.1091 15.70319053  5171"}}, "geometry": {"type": "Point", "coordinates": [-47.60423909197124, -18.471415841202976]}}, {"type": "Feature", "properties": {"norad_id": 66365, "name": "STARLINK-35827", "group": "last-30-days", "lat": -15.488177068559208, "lon": -45.09872891738401, "alt_km": 366.35199388405, "timestamp": "2025-12-02T06:27:51.800050+00:00", "meta": {"OBJECT_NAME": "STARLINK-35827", "OBJECT_ID": "2025-254T", "EPOCH": "2025-12-01T20:00:01.999008", "MEAN_MOTION": 15.70321879, "ECCENTRICITY": 9.15e-05, "INCLINATION": 53.1587, "RA_OF_ASC_NODE": 329.0413, "ARG_OF_PERICENTER": 99.4447, "MEAN_ANOMALY": 296.4884, "EPHEMERIS_TYPE": 0, "CLASSIFICATION_TYPE": "U", "NORAD_CAT_ID": 66365, "ELEMENT_SET_NO": 999, "REV_AT_EPOCH": 514, "BSTAR": -0.017918, "MEAN_MOTION_DOT": -0.01968322, "MEAN_MOTION_DDOT": 0}, "tle": {"line1": "1 66365U 25254T   25335.83335647 -.01968322  00000+0 -17918-1 0  9990", "line2": "2 66365  53.1587 329.0413 0000915  99.4447 296.4884 15.70321879  5145"}}, "geometry": {"type": "Point", "coordinates": [-45.09872891738401, -15.488177068559208]}}, {"type": "Feature", "properties": {"norad_id": 66366, "name": "STARLINK-35845", "group": "last-30-days", "lat": -16.984603311710213, "lon": -46.34275704257163, "alt_km": 366.5645648939735, "timestamp": "2025-12-02T06:27:51.800063+00:00", "meta": {"OBJECT_NAME": "STARLINK-35845", "OBJECT_ID": "2025-254U", "EPOCH": "2025-12-01T20:00:01.999008", "MEAN_MOTION": 15.70318808, "ECCENTRICITY": 9.57e-05, "INCLINATION": 53.1589, "RA_OF_ASC_NODE": 329.0445, "ARG_OF_PERICENTER": 102.4972, "MEAN_ANOMALY": 291.5204, "EPHEMERIS_TYPE": 0, "CLASSIFICATION_TYPE": "U", "NORAD_CAT_ID": 66366, "ELEMENT_SET_NO": 999, "REV_AT_EPOCH": 517, "BSTAR": -0.017885, "MEAN_MOTION_DOT": -0.01964885, "MEAN_MOTION_DDOT": 0}, "tle": {"line1": "1 66366U 25254U   25335.83335647 -.01964885  00000+0 -17885-1 0  9994", "line2": "2 66366  53.1589 329.0445 0000957 102.4972 291.5204 15.70318808  5170"}}, "geometry": {"type": "Point", "coordinates": [-46.34275704257163, -16.984603311710213]}}, {"type": "Feature", "properties": {"norad_id": 66367, "name": "STARLINK-35846", "group": "last-30-days", "lat": -13.988439668405961, "lon": -43.87713729017783, "alt_km": 366.13938672675886, "timestamp": "2025-12-02T06:27:51.800073+00:00", "meta": {"OBJECT_NAME": "STARLINK-35846", "OBJECT_ID": "2025-254V", "EPOCH": "2025-12-01T20:00:01.999008", "MEAN_MOTION": 15.70316934, "ECCENTRICITY": 0.0001067, "INCLINATION": 53.1585, "RA_OF_ASC_NODE": 329.0365, "ARG_OF_PERICENTER": 81.3998, "MEAN_ANOMALY": 316.4522, "EPHEMERIS_TYPE": 0, "CLASSIFICATION_TYPE": "U", "NORAD_CAT_ID": 66367, "ELEMENT_SET_NO": 999, "REV_AT_EPOCH": 512, "BSTAR": -0.017877, "MEAN_MOTION_DOT": -0.01964135, "MEAN_MOTION_DDOT": 0}, "tle": {"line1": "1 66367U 25254V   25335.83335647 -.01964135  00000+0 -17877-1 0  9994", "line2": "2 66367  53.1585 329.0365 0001067  81.3998 316.4522 15.70316934  5127"}}, "geometry": {"type": "Point", "coordinates": [-43.87713729017783, -13.988439668405961]}}, {"type": "Feature", "properties": {"norad_id": 66368, "name": "STARLINK-34861", "group": "last-30-days", "lat": 0.6682821103779863, "lon": -32.64981055426317, "alt_km": 346.40163729089545, "timestamp": "2025-12-02T06:27:51.800083+00:00", "meta": {"OBJECT_NAME": "STARLINK-34861", "OBJECT_ID": "2025-254W", "EPOCH": "2025-12-01T13:42:12.226176", "MEAN_MOTION": 15.74310652, "ECCENTRICITY": 0.00014046, "INCLINATION": 53.1573, "RA_OF_ASC_NODE": 330.3176, "ARG_OF_PERICENTER": 93.2366, "MEAN_ANOMALY": 266.8814, "EPHEMERIS_TYPE": 0, "CLASSIFICATION_TYPE": "U", "NORAD_CAT_ID": 66368, "ELEMENT_SET_NO": 999, "REV_AT_EPOCH": 392, "BSTAR": 0.0018549157, "MEAN_MOTION_DOT": 0.00281787, "MEAN_MOTION_DDOT": 0}, "tle": {"line1": "1 66368U 25254W   25335.57097484  .00281787  00000+0  18549-2 0  9990", "line2": "2 66368  53.1573 330.3176 0001404  93.2366 266.8814 15.74310652  3929"}}, "geometry": {"type": "Point", "coordinates": [-32.64981055426317, 0.6682821103779863]}}, {"type": "Feature", "properties": {"norad_id": 66369, "name": "STARLINK-35795", "group": "last-30-days", "lat": -0.967377303588432, "lon": -33.87219360895126, "alt_km": 346.66958790675835, "timestamp": "2025-12-02T06:27:51.800093+00:00", "meta": {"OBJECT_NAME": "STARLINK-35795", "OBJECT_ID": "2025-254X", "EPOCH": "2025-12-01T12:11:16.281312", "MEAN_MOTION": 15.74277166, "ECCENTRICITY": 0.00013549, "INCLINATION": 53.1574, "RA_OF_ASC_NODE": 330.635, "ARG_OF_PERICENTER": 76.8176, "MEAN_ANOMALY": 283.2995, "EPHEMERIS_TYPE": 0, "CLASSIFICATION_TYPE": "U", "NORAD_CAT_ID": 66369, "ELEMENT_SET_NO": 999, "REV_AT_EPOCH": 391, "BSTAR": 0.0014031395, "MEAN_MOTION_DOT": 0.00210891, "MEAN_MOTION_DDOT": 0}, "tle": {"line1": "1 66369U 25254X   25335.50782733  .00210891  00000+0  14031-2 0  9992", "line2": "2 66369  53.1574 330.6350 0001354  76.8176 283.2995 15.74277166  3912"}}, "geometry": {"type": "Point", "coordinates": [-33.87219360895126, -0.967377303588432]}}, {"type": "Feature", "properties": {"norad_id": 66370, "name": "STARLINK-35824", "group": "last-30-days", "lat": 2.15742821146569, "lon": -31.53555765671771, "alt_km": 346.0477494173165, "timestamp": "2025-12-02T06:27:51.800105+00:00", "meta": {"OBJECT_NAME": "STARLINK-35824", "OBJECT_ID": "2025-254Y", "EPOCH": "2025-12-01T13:41:43.102464", "MEAN_MOTION": 15.74302208, "ECCENTRICITY": 0.00014941, "INCLINATION": 53.1574, "RA_OF_ASC_NODE": 330.3159, "ARG_OF_PERICENTER": 81.032, "MEAN_ANOMALY": 279.0869, "EPHEMERIS_TYPE": 0, "CLASSIFICATION_TYPE": "U", "NORAD_CAT_ID": 66370, "ELEMENT_SET_NO": 999, "REV_AT_EPOCH": 392, "BSTAR": 0.0017428246, "MEAN_MOTION_DOT": 0.00264061, "MEAN_MOTION_DDOT": 0}, "tle": {"line1": "1 66370U 25254Y   25335.57063776  .00264061  00000+0  17428-2 0  9991", "line2": "2 66370  53.1574 330.3159 0001494  81.0320 279.0869 15.74302208  3922"}}, "geometry": {"type": "Point", "coordinates": [-31.53555765671771, 2.15742821146569]}}, {"type": "Feature", "properties": {"norad_id": 66371, "name": "STARLINK-35804", "group": "last-30-days", "lat": 4.778160724486146, "lon": -29.567863374056586, "alt_km": 347.0628067667212, "timestamp": "2025-12-02T06:27:51.800115+00:00", "meta": {"OBJECT_NAME": "STARLINK-35804", "OBJECT_ID": "2025-254Z", "EPOCH": "2025-12-01T19:46:26.547168", "MEAN_MOTION": 15.74244541, "ECCENTRICITY": 0.0001594, "INCLINATION": 53.1569, "RA_OF_ASC_NODE": 329.0504, "ARG_OF_PERICENTER": 119.2531, "MEAN_ANOMALY": 240.8649, "EPHEMERIS_TYPE": 0, "CLASSIFICATION_TYPE": "U", "NORAD_CAT_ID": 66371, "ELEMENT_SET_NO": 999, "REV_AT_EPOCH": 396, "BSTAR": 0.001183, "MEAN_MOTION_DOT": 0.00176725, "MEAN_MOTION_DDOT": 0}, "tle": {"line1": "1 66371U 25254Z   25335.82391837  .00176725  00000+0  11830-2 0  9992", "line2": "2 66371  53.1569 329.0504 0001594 119.2531 240.8649 15.74244541  3966"}}, "geometry": {"type": "Point", "coordinates": [-29.567863374056586, 4.778160724486146]}}, {"type": "Feature", "properties": {"norad_id": 66372, "name": "STARLINK-35821", "group": "last-30-days", "lat": 3.4133828383273417, "lon": -30.593904381508963, "alt_km": 346.61961789833913, "timestamp": "2025-12-02T06:27:51.800125+00:00", "meta": {"OBJECT_NAME": "STARLINK-35821", "OBJECT_ID": "2025-254AA", "EPOCH": "2025-12-01T12:09:48.911040", "MEAN_MOTION": 15.74237471, "ECCENTRICITY": 0.00016636, "INCLINATION": 53.1575, "RA_OF_ASC_NODE": 330.6291, "ARG_OF_PERICENTER": 89.1847, "MEAN_ANOMALY": 270.9363, "EPHEMERIS_TYPE": 0, "CLASSIFICATION_TYPE": "U", "NORAD_CAT_ID": 66372, "ELEMENT_SET_NO": 999, "REV_AT_EPOCH": 391, "BSTAR": 0.00091951412, "MEAN_MOTION_DOT": 0.00136526, "MEAN_MOTION_DDOT": 0}, "tle": {"line1": "1 66372U 25254AA  25335.50681610  .00136526  00000+0  91951-3 0  9997", "line2": "2 66372  53.1575 330.6291 0001663  89.1847 270.9363 15.74237471  3913"}}, "geometry": {"type": "Point", "coordinates": [-30.593904381508963, 3.4133828383273417]}}]}